ONEWEB-0228             
1 48780U 21045P   23352.30150969  .00000085  00000+0  19183-3 0  9994
2 48780  87.9000  80.7145 0001624 108.0369 252.0938 13.15540889124435
